[{"OBJECT_NAME":"EDISON-1","OBJECT_ID":"2025-009B","EPOCH":"2026-03-09T19:16:13.822464","MEAN_MOTION":15.29042904,"ECCENTRICITY":0.00043285,"INCLINATION":97.4042,"RA_OF_ASC_NODE":151.6286,"ARG_OF_PERICENTER":306.4185,"MEAN_ANOMALY":53.6655,"EPHEMERIS_TYPE":0,"CLASSIFICATION_TYPE":"U","NORAD_CAT_ID":62610,"ELEMENT_SET_NO":999,"REV_AT_EPOCH":6375,"BSTAR":0.00052814963,"MEAN_MOTION_DOT":0.00014835,"MEAN_MOTION_DDOT":0},{"OBJECT_NAME":"STARLINK-34288","OBJECT_ID":"2025-139K","EPOCH":"2026-03-09T13:13:04.660032","MEAN_MOTION":15.30189984,"ECCENTRICITY":0.0001552,"INCLINATION":53.1606,"RA_OF_ASC_NODE":127.6292,"ARG_OF_PERICENTER":69.0226,"MEAN_ANOMALY":291.0941,"EPHEMERIS_TYPE":0,"CLASSIFICATION_TYPE":"U","NORAD_CAT_ID":64673,"ELEMENT_SET_NO":999,"REV_AT_EPOCH":4026,"BSTAR":0.00091259,"MEAN_MOTION_DOT":0.00026758,"MEAN_MOTION_DDOT":0}]
